{
    "links": {
        "self": "http://www.neowsapp.com/rest/v1/neo/54016550?api_key=iIulBulltgU6a56xZRHN4H3l9WmuAYTsLGpBGhQ2"
    },
    "id": "54016550",
    "neo_reference_id": "54016550",
    "name": "(2020 HL)",
    "designation": "2020 HL",
    "nasa_jpl_url": "http://ssd.jpl.nasa.gov/sbdb.cgi?sstr=54016550",
    "absolute_magnitude_h": 25.048,
    "estimated_diameter": {
        "kilometers": {
            "estimated_diameter_min": 0.0259989002,
            "estimated_diameter_max": 0.0581353081
        },
        "meters": {
            "estimated_diameter_min": 25.9989001809,
            "estimated_diameter_max": 58.1353081447
        },
        "miles": {
            "estimated_diameter_min": 0.0161549626,
            "estimated_diameter_max": 0.0361235946
        },
        "feet": {
            "estimated_diameter_min": 85.2982316695,
            "estimated_diameter_max": 190.7326443736
        }
    },
    "is_potentially_hazardous_asteroid": false,
    "close_approach_data": [
        {
            "close_approach_date": "2017-01-01",
            "close_approach_date_full": "2017-Jan-01 22:14",
            "epoch_date_close_approach": 1483308840000,
            "relative_velocity": {
                "kilometers_per_second": "7.762925463",
                "kilometers_per_hour": "27946.5316668134",
                "miles_per_hour": "17364.887968193"
            },
            "miss_distance": {
                "astronomical": "0.0896479896",
                "lunar": "34.8730679544",
                "kilometers": "13411148.293942152",
                "miles": "8333301.1295476176"
            },
            "orbiting_body": "Mars"
        },
        {
            "close_approach_date": "2018-09-12",
            "close_approach_date_full": "2018-Sep-12 21:57",
            "epoch_date_close_approach": 1536789420000,
            "relative_velocity": {
                "kilometers_per_second": "20.1000814426",
                "kilometers_per_hour": "72360.2931935051",
                "miles_per_hour": "44961.8721790421"
            },
            "miss_distance": {
                "astronomical": "0.363995914",
                "lunar": "141.594410546",
                "kilometers": "54453013.42310318",
                "miles": "33835533.566576684"
            },
            "orbiting_body": "Earth"
        },
        {
            "close_approach_date": "2020-05-05",
            "close_approach_date_full": "2020-May-05 15:25",
            "epoch_date_close_approach": 1588692300000,
            "relative_velocity": {
                "kilometers_per_second": "9.1618505968",
                "kilometers_per_hour": "32982.6621483417",
                "miles_per_hour": "20494.143599896"
            },
            "miss_distance": {
                "astronomical": "0.0429690724",
                "lunar": "16.7149691636",
                "kilometers": "6428081.706915788",
                "miles": "3994224.7580143544"
            },
            "orbiting_body": "Earth"
        },
        {
            "close_approach_date": "2020-09-13",
            "close_approach_date_full": "2020-Sep-13 22:13",
            "epoch_date_close_approach": 1600035180000,
            "relative_velocity": {
                "kilometers_per_second": "4.362664291",
                "kilometers_per_hour": "15705.5914477654",
                "miles_per_hour": "9758.8437526407"
            },
            "miss_distance": {
                "astronomical": "0.4516373195",
                "lunar": "175.6869172855",
                "kilometers": "67563981.009709465",
                "miles": "41982311.053802017"
            },
            "orbiting_body": "Earth"
        },
        {
            "close_approach_date": "2181-05-12",
            "close_approach_date_full": "2181-May-12 21:20",
            "epoch_date_close_approach": 6669984000000,
            "relative_velocity": {
                "kilometers_per_second": "9.3904277129",
                "kilometers_per_hour": "33805.5397663513",
                "miles_per_hour": "21005.4477509309"
            },
            "miss_distance": {
                "astronomical": "0.0543510961",
                "lunar": "21.1425763829",
                "kilometers": "8130808.208725307",
                "miles": "5052249.9449589566"
            },
            "orbiting_body": "Mars"
        }
    ],
    "orbital_data": {
        "orbit_id": "5",
        "orbit_determination_date": "2020-08-22 06:33:15",
        "first_observation_date": "2020-04-16",
        "last_observation_date": "2020-04-26",
        "data_arc_in_days": 10,
        "observations_used": 30,
        "orbit_uncertainty": "8",
        "minimum_orbit_intersection": ".0372212",
        "jupiter_tisserand_invariant": "4.405",
        "epoch_osculation": "2458960.5",
        "eccentricity": ".4036965259238703",
        "semi_major_axis": "1.521565698961727",
        "inclination": "5.014517214450485",
        "ascending_node_longitude": "18.82414703758549",
        "orbital_period": "685.5426687368508",
        "perihelion_distance": ".9073149123259523",
        "perihelion_argument": "255.4255000920177",
        "aphelion_distance": "2.135816485597501",
        "perihelion_time": "2459015.007288389758",
        "mean_anomaly": "331.376509858287",
        "mean_motion": ".5251314271412446",
        "equinox": "J2000",
        "orbit_class": {
            "orbit_class_type": "APO",
            "orbit_class_description": "Near-Earth asteroid orbits which cross the Earth’s orbit similar to that of 1862 Apollo",
            "orbit_class_range": "a (semi-major axis) > 1.0 AU; q (perihelion) < 1.017 AU"
        }
    },
    "is_sentry_object": false
}